{"type": "FeatureCollection", "features": [ {"type": "Feature", "properties": {"norad_id": 36206, "name": "FENGYUN 1C DEB", "group": "fengyun-1c-debris", "lat": 10.041900270429595, "lon": -154.47449739424187, "alt_km": 842.2265620374901, "timestamp": "2025-12-27T10:28:59.082736+00:00", "meta": {"OBJECT_NAME": "FENGYUN 1C DEB", "OBJECT_ID": "1999-025DUF", "EPOCH": "2025-12-24T20:52:33.826080", "MEAN_MOTION": 14.21615438, "ECCENTRICITY": 0.0029773, "INCLINATION": 98.4773, "RA_OF_ASC_NODE": 21.5465, "ARG_OF_PERICENTER": 343.5868, "MEAN_ANOMALY": 16.4343, "EPHEMERIS_TYPE": 0, "CLASSIFICATION_TYPE": "U", "NORAD_CAT_ID": 36206, "ELEMENT_SET_NO": 999, "REV_AT_EPOCH": 64593, "BSTAR": 0.00062406, "MEAN_MOTION_DOT": 1.333e-05, "MEAN_MOTION_DDOT": 0}, "tle": {"line1": "1 36206U 99025DUF 25358.86983595  .00001333  00000+0  62406-3 0  9998", "line2": "2 36206  98.4773  21.5465 0029773 343.5868  16.4343 14.21615438645938"}}, "geometry": {"type": "Point", "coordinates": [-154.47449739424187, 10.041900270429595]}}, {"type": "Feature", "properties": {"norad_id": 36211, "name": "FENGYUN 1C DEB", "group": "fengyun-1c-debris", "lat": -2.602588952414599, "lon": 173.8007874987126, "alt_km": 616.6661569975086, "timestamp": "2025-12-27T10:28:59.082747+00:00", "meta": {"OBJECT_NAME": "FENGYUN 1C DEB", "OBJECT_ID": "1999-025DUL", "EPOCH": "2025-12-26T04:59:58.456608", "MEAN_MOTION": 14.26029025, "ECCENTRICITY": 0.0267109, "INCLINATION": 98.5052, "RA_OF_ASC_NODE": 352.9964, "ARG_OF_PERICENTER": 189.2836, "MEAN_ANOMALY": 170.3353, "EPHEMERIS_TYPE": 0, "CLASSIFICATION_TYPE": "U", "NORAD_CAT_ID": 36211, "ELEMENT_SET_NO": 999, "REV_AT_EPOCH": 94561, "BSTAR": 0.00042187, "MEAN_MOTION_DOT": 1.417e-05, "MEAN_MOTION_DDOT": 0}, "tle": {"line1": "1 36211U 99025DUL 25360.20831547  .00001417  00000+0  42187-3 0  9991", "line2": "2 36211  98.5052 352.9964 0267109 189.2836 170.3353 14.26029025945612"}}, "geometry": {"type": "Point", "coordinates": [173.8007874987126, -2.602588952414599]}}, {"type": "Feature", "properties": {"norad_id": 36216, "name": "FENGYUN 1C DEB", "group": "fengyun-1c-debris", "lat": 3.6835703228781265, "lon": -158.22664819736914, "alt_km": 861.4647229918919, "timestamp": "2025-12-27T10:28:59.082757+00:00", "meta": {"OBJECT_NAME": "FENGYUN 1C DEB", "OBJECT_ID": "1999-025DUR", "EPOCH": "2025-12-26T20:06:51.325056", "MEAN_MOTION": 14.18878046, "ECCENTRICITY": 0.00443185, "INCLINATION": 98.6068, "RA_OF_ASC_NODE": 20.6335, "ARG_OF_PERICENTER": 337.3241, "MEAN_ANOMALY": 22.5977, "EPHEMERIS_TYPE": 0, "CLASSIFICATION_TYPE": "U", "NORAD_CAT_ID": 36216, "ELEMENT_SET_NO": 999, "REV_AT_EPOCH": 64572, "BSTAR": 0.00034433137, "MEAN_MOTION_DOT": 6.81e-06, "MEAN_MOTION_DDOT": 0}, "tle": {"line1": "1 36216U 99025DUR 25360.83809404  .00000681  00000+0  34433-3 0  9999", "line2": "2 36216  98.6068  20.6335 0044318 337.3241  22.5977 14.18878046645722"}}, "geometry": {"type": "Point", "coordinates": [-158.22664819736914, 3.6835703228781265]}}, {"type": "Feature", "properties": {"norad_id": 36218, "name": "FENGYUN 1C DEB", "group": "fengyun-1c-debris", "lat": -39.895474921744075, "lon": -148.2056519179783, "alt_km": 645.7616702267842, "timestamp": "2025-12-27T10:28:59.082767+00:00", "meta": {"OBJECT_NAME": "FENGYUN 1C DEB", "OBJECT_ID": "1999-025DUT", "EPOCH": "2025-12-24T07:34:49.743264", "MEAN_MOTION": 14.71143778, "ECCENTRICITY": 0.00722677, "INCLINATION": 99.0761, "RA_OF_ASC_NODE": 200.6397, "ARG_OF_PERICENTER": 259.5662, "MEAN_ANOMALY": 99.7391, "EPHEMERIS_TYPE": 0, "CLASSIFICATION_TYPE": "U", "NORAD_CAT_ID": 36218, "ELEMENT_SET_NO": 999, "REV_AT_EPOCH": 59313, "BSTAR": 0.0013149069, "MEAN_MOTION_DOT": 8.373e-05, "MEAN_MOTION_DDOT": 0}, "tle": {"line1": "1 36218U 99025DUT 25358.31585351  .00008373  00000+0  13149-2 0  9999", "line2": "2 36218  99.0761 200.6397 0072267 259.5662  99.7391 14.71143778593132"}}, "geometry": {"type": "Point", "coordinates": [-148.2056519179783, -39.895474921744075]}}, {"type": "Feature", "properties": {"norad_id": 36224, "name": "FENGYUN 1C DEB", "group": "fengyun-1c-debris", "lat": 81.1668916649952, "lon": -47.61442265527681, "alt_km": 906.0070911267503, "timestamp": "2025-12-27T10:28:59.082777+00:00", "meta": {"OBJECT_NAME": "FENGYUN 1C DEB", "OBJECT_ID": "1999-025DUZ", "EPOCH": "2025-12-24T08:57:55.014624", "MEAN_MOTION": 14.12767953, "ECCENTRICITY": 0.01140644, "INCLINATION": 98.7784, "RA_OF_ASC_NODE": 45.4833, "ARG_OF_PERICENTER": 318.7957, "MEAN_ANOMALY": 40.4647, "EPHEMERIS_TYPE": 0, "CLASSIFICATION_TYPE": "U", "NORAD_CAT_ID": 36224, "ELEMENT_SET_NO": 999, "REV_AT_EPOCH": 64596, "BSTAR": 0.00011347957, "MEAN_MOTION_DOT": 1.8e-06, "MEAN_MOTION_DDOT": 0}, "tle": {"line1": "1 36224U 99025DUZ 25358.37355341  .00000180  00000+0  11348-3 0  9994", "line2": "2 36224  98.7784  45.4833 0114064 318.7957  40.4647 14.12767953645965"}}, "geometry": {"type": "Point", "coordinates": [-47.61442265527681, 81.1668916649952]}}, {"type": "Feature", "properties": {"norad_id": 36225, "name": "FENGYUN 1C DEB", "group": "fengyun-1c-debris", "lat": 50.55493815466567, "lon": -44.16901376072819, "alt_km": 552.9320014468512, "timestamp": "2025-12-27T10:28:59.082787+00:00", "meta": {"OBJECT_NAME": "FENGYUN 1C DEB", "OBJECT_ID": "1999-025DVA", "EPOCH": "2025-12-27T01:56:38.552064", "MEAN_MOTION": 15.07159571, "ECCENTRICITY": 0.0042953, "INCLINATION": 98.8181, "RA_OF_ASC_NODE": 124.5475, "ARG_OF_PERICENTER": 245.4217, "MEAN_ANOMALY": 114.2528, "EPHEMERIS_TYPE": 0, "CLASSIFICATION_TYPE": "U", "NORAD_CAT_ID": 36225, "ELEMENT_SET_NO": 999, "REV_AT_EPOCH": 66988, "BSTAR": 0.0033224, "MEAN_MOTION_DOT": 0.00051274, "MEAN_MOTION_DDOT": 0}, "tle": {"line1": "1 36225U 99025DVA 25361.08100176  .00051274  00000+0  33224-2 0  9997", "line2": "2 36225  98.8181 124.5475 0042953 245.4217 114.2528 15.07159571669882"}}, "geometry": {"type": "Point", "coordinates": [-44.16901376072819, 50.55493815466567]}}, {"type": "Feature", "properties": {"norad_id": 36226, "name": "FENGYUN 1C DEB", "group": "fengyun-1c-debris", "lat": 63.51333192108209, "lon": -118.98014856785453, "alt_km": 901.4573828244047, "timestamp": "2025-12-27T10:28:59.082797+00:00", "meta": {"OBJECT_NAME": "FENGYUN 1C DEB", "OBJECT_ID": "1999-025DVB", "EPOCH": "2025-12-16T21:56:50.014464", "MEAN_MOTION": 14.10310742, "ECCENTRICITY": 0.0095148, "INCLINATION": 98.6088, "RA_OF_ASC_NODE": 33.2455, "ARG_OF_PERICENTER": 8.6109, "MEAN_ANOMALY": 351.6668, "EPHEMERIS_TYPE": 0, "CLASSIFICATION_TYPE": "U", "NORAD_CAT_ID": 36226, "ELEMENT_SET_NO": 999, "REV_AT_EPOCH": 63821, "BSTAR": 0.0011977074, "MEAN_MOTION_DOT": 2.175e-05, "MEAN_MOTION_DDOT": 0}, "tle": {"line1": "1 36226U 99025DVB 25350.91446776  .00002175  00000+0  11977-2 0  9994", "line2": "2 36226  98.6088  33.2455 0095148   8.6109 351.6668 14.10310742638211"}}, "geometry": {"type": "Point", "coordinates": [-118.98014856785453, 63.51333192108209]}}, {"type": "Feature", "properties": {"norad_id": 36229, "name": "FENGYUN 1C DEB", "group": "fengyun-1c-debris", "lat": 75.80697107140836, "lon": 174.46108262518624, "alt_km": 786.6330559078106, "timestamp": "2025-12-27T10:28:59.082807+00:00", "meta": {"OBJECT_NAME": "FENGYUN 1C DEB", "OBJECT_ID": "1999-025DVE", "EPOCH": "2025-12-26T20:27:17.854272", "MEAN_MOTION": 14.07265723, "ECCENTRICITY": 0.01033341, "INCLINATION": 100.9239, "RA_OF_ASC_NODE": 223.5394, "ARG_OF_PERICENTER": 85.1959, "MEAN_ANOMALY": 276.0994, "EPHEMERIS_TYPE": 0, "CLASSIFICATION_TYPE": "U", "NORAD_CAT_ID": 36229, "ELEMENT_SET_NO": 999, "REV_AT_EPOCH": 63454, "BSTAR": 0.0017132996, "MEAN_MOTION_DOT": 2.959e-05, "MEAN_MOTION_DDOT": 0}, "tle": {"line1": "1 36229U 99025DVE 25360.85228998  .00002959  00000+0  17133-2 0  9995", "line2": "2 36229 100.9239 223.5394 0103334  85.1959 276.0994 14.07265723634543"}}, "geometry": {"type": "Point", "coordinates": [174.46108262518624, 75.80697107140836]}}, {"type": "Feature", "properties": {"norad_id": 36230, "name": "FENGYUN 1C DEB", "group": "fengyun-1c-debris", "lat": 51.783121226616544, "lon": 64.2244286884504, "alt_km": 873.2994798429054, "timestamp": "2025-12-27T10:28:59.082817+00:00", "meta": {"OBJECT_NAME": "FENGYUN 1C DEB", "OBJECT_ID": "1999-025DVF", "EPOCH": "2025-12-22T01:01:35.356512", "MEAN_MOTION": 13.7530541, "ECCENTRICITY": 0.0216662, "INCLINATION": 99.5223, "RA_OF_ASC_NODE": 71.1449, "ARG_OF_PERICENTER": 117.9783, "MEAN_ANOMALY": 244.3476, "EPHEMERIS_TYPE": 0, "CLASSIFICATION_TYPE": "U", "NORAD_CAT_ID": 36230, "ELEMENT_SET_NO": 999, "REV_AT_EPOCH": 62014, "BSTAR": 0.0015305851, "MEAN_MOTION_DOT": 1.699e-05, "MEAN_MOTION_DDOT": 0}, "tle": {"line1": "1 36230U 99025DVF 25356.04277033  .00001699  00000+0  15306-2 0  9997", "line2": "2 36230  99.5223  71.1449 0216662 117.9783 244.3476 13.75305410620143"}}, "geometry": {"type": "Point", "coordinates": [64.2244286884504, 51.783121226616544]}}, {"type": "Feature", "properties": {"norad_id": 36231, "name": "FENGYUN 1C DEB", "group": "fengyun-1c-debris", "lat": 80.83194878309189, "lon": -132.70934952228856, "alt_km": 886.1934705656531, "timestamp": "2025-12-27T10:28:59.082827+00:00", "meta": {"OBJECT_NAME": "FENGYUN 1C DEB", "OBJECT_ID": "1999-025DVG", "EPOCH": "2025-12-25T15:31:35.680800", "MEAN_MOTION": 14.12014383, "ECCENTRICITY": 0.00600087, "INCLINATION": 98.6901, "RA_OF_ASC_NODE": 334.1799, "ARG_OF_PERICENTER": 296.3877, "MEAN_ANOMALY": 63.1143, "EPHEMERIS_TYPE": 0, "CLASSIFICATION_TYPE": "U", "NORAD_CAT_ID": 36231, "ELEMENT_SET_NO": 999, "REV_AT_EPOCH": 85725, "BSTAR": 0.00016050686, "MEAN_MOTION_DOT": 2.56e-06, "MEAN_MOTION_DDOT": 0}, "tle": {"line1": "1 36231U 99025DVG 25359.64694075  .00000256  00000+0  16051-3 0  9993", "line2": "2 36231  98.6901 334.1799 0060008 296.3877  63.1143 14.12014383857254"}}, "geometry": {"type": "Point", "coordinates": [-132.70934952228856, 80.83194878309189]}}]}